{
    "links": {
        "self": "http://www.neowsapp.com/rest/v1/neo/3388409?api_key=iIulBulltgU6a56xZRHN4H3l9WmuAYTsLGpBGhQ2"
    },
    "id": "3388409",
    "neo_reference_id": "3388409",
    "name": "(2007 TG71)",
    "designation": "2007 TG71",
    "nasa_jpl_url": "http://ssd.jpl.nasa.gov/sbdb.cgi?sstr=3388409",
    "absolute_magnitude_h": 26.4,
    "estimated_diameter": {
        "kilometers": {
            "estimated_diameter_min": 0.0139493823,
            "estimated_diameter_max": 0.0311917671
        },
        "meters": {
            "estimated_diameter_min": 13.9493822934,
            "estimated_diameter_max": 31.1917670523
        },
        "miles": {
            "estimated_diameter_min": 0.0086677416,
            "estimated_diameter_max": 0.0193816595
        },
        "feet": {
            "estimated_diameter_min": 45.7656914036,
            "estimated_diameter_max": 102.3351970157
        }
    },
    "is_potentially_hazardous_asteroid": false,
    "close_approach_data": [
        {
            "close_approach_date": "2007-10-20",
            "close_approach_date_full": "2007-Oct-20 05:33",
            "epoch_date_close_approach": 1192858380000,
            "relative_velocity": {
                "kilometers_per_second": "6.5967532213",
                "kilometers_per_hour": "23748.311596846",
                "miles_per_hour": "14756.2772808291"
            },
            "miss_distance": {
                "astronomical": "0.0486153498",
                "lunar": "18.9113710722",
                "kilometers": "7272752.779384926",
                "miles": "4519079.0246309388"
            },
            "orbiting_body": "Earth"
        }
    ],
    "orbital_data": {
        "orbit_id": "6",
        "orbit_determination_date": "2017-04-06 09:05:39",
        "first_observation_date": "2007-10-14",
        "last_observation_date": "2007-10-15",
        "data_arc_in_days": 1,
        "observations_used": 9,
        "orbit_uncertainty": "9",
        "minimum_orbit_intersection": ".0456686",
        "jupiter_tisserand_invariant": "4.956",
        "epoch_osculation": "2454388.5",
        "eccentricity": ".233166358736149",
        "semi_major_axis": "1.300596415449367",
        "inclination": "10.62053186033845",
        "ascending_node_longitude": "18.41157257379272",
        "orbital_period": "541.7666358733934",
        "perihelion_distance": ".9973410850737506",
        "perihelion_argument": "43.49232987368837",
        "aphelion_distance": "1.603851745824984",
        "perihelion_time": "2454427.653909517050",
        "mean_anomaly": "333.9825111167754",
        "mean_motion": ".6644927468071865",
        "equinox": "J2000",
        "orbit_class": {
            "orbit_class_type": "APO",
            "orbit_class_description": "Near-Earth asteroid orbits which cross the Earth’s orbit similar to that of 1862 Apollo",
            "orbit_class_range": "a (semi-major axis) > 1.0 AU; q (perihelion) < 1.017 AU"
        }
    },
    "is_sentry_object": false
}